
G90
G21
M83
M104 S0
M106 S0
M140 S0
G92 X0 Y0 Z4.8
G0 F1500 X20.7 Y4.8 Z0
G92 X0 Y0 Z0

G0 F7200 X0 Y0 Z0
G0 F3600 X0 Y5
G0 X-0.01309 Y4.999983
G0 X-0.02618 Y4.999931
G0 X-0.03927 Y4.999846
G0 X-0.052359 Y4.999726
G0 X-0.065448 Y4.999572
G0 X-0.078537 Y4.999383
G0 X-0.091625 Y4.99916
G0 X-0.104712 Y4.998903
G0 X-0.117799 Y4.998612
G0 X-0.130885 Y4.998287
G0 X-0.14397 Y4.997927
G0 X-0.157054 Y4.997533
G0 X-0.170137 Y4.997105
G0 X-0.183219 Y4.996642
G0 X-0.196299 Y4.996145
G0 X-0.209378 Y4.995614
G0 X-0.222456 Y4.995049
G0 X-0.235532 Y4.994449
G0 X-0.248607 Y4.993816
G0 X-0.26168 Y4.993148
G0 X-0.274751 Y4.992445
G0 X-0.28782 Y4.991709
G0 X-0.300887 Y4.990938
G0 X-0.313953 Y4.990134
G0 X-0.327016 Y4.989295
G0 X-0.340076 Y4.988421
G0 X-0.353135 Y4.987514
G0 X-0.366191 Y4.986572
G0 X-0.379245 Y4.985597
G0 X-0.392295 Y4.984587
G0 X-0.405344 Y4.983543
G0 X-0.418389 Y4.982464
G0 X-0.431432 Y4.981352
G0 X-0.444471 Y4.980205
G0 X-0.457508 Y4.979025
G0 X-0.470542 Y4.97781
G0 X-0.483572 Y4.976561
G0 X-0.496599 Y4.975278
G0 X-0.509622 Y4.973961
G0 X-0.522642 Y4.972609
G0 X-0.535659 Y4.971224
G0 X-0.548672 Y4.969805
G0 X-0.561681 Y4.968351
G0 X-0.574686 Y4.966864
G0 X-0.587687 Y4.965342
G0 X-0.600684 Y4.963787
G0 X-0.613677 Y4.962197
G0 X-0.626666 Y4.960574
G0 X-0.639651 Y4.958916
G0 X-0.652631 Y4.957224
G0 X-0.665607 Y4.955499
G0 X-0.678578 Y4.953739
G0 X-0.691544 Y4.951946
G0 X-0.704506 Y4.950118
G0 X-0.717463 Y4.948257
G0 X-0.730415 Y4.946362
G0 X-0.743362 Y4.944432
G0 X-0.756304 Y4.942469
G0 X-0.769241 Y4.940472
G0 X-0.782172 Y4.938442
G0 X-0.795098 Y4.936377
G0 X-0.808019 Y4.934279
G0 X-0.820934 Y4.932146
G0 X-0.833844 Y4.92998
G0 X-0.846748 Y4.92778
G0 X-0.859646 Y4.925547
G0 X-0.872538 Y4.923279
G0 X-0.885424 Y4.920978
G0 X-0.898304 Y4.918643
G0 X-0.911178 Y4.916275
G0 X-0.924045 Y4.913872
G0 X-0.936907 Y4.911436
G0 X-0.949761 Y4.908967
G0 X-0.96261 Y4.906463
G0 X-0.975452 Y4.903926
G0 X-0.988287 Y4.901356
G0 X-1.001115 Y4.898752
G0 X-1.013936 Y4.896114
G0 X-1.026751 Y4.893443
G0 X-1.039558 Y4.890738
G0 X-1.052359 Y4.888
G0 X-1.065152 Y4.885228
G0 X-1.077938 Y4.882423
G0 X-1.090716 Y4.879584
G0 X-1.103487 Y4.876712
G0 X-1.116251 Y4.873806
G0 X-1.129006 Y4.870867
G0 X-1.141754 Y4.867895
G0 X-1.154495 Y4.864889
G0 X-1.167227 Y4.86185
G0 X-1.179951 Y4.858777
G0 X-1.192667 Y4.855671
G0 X-1.205375 Y4.852532
G0 X-1.218075 Y4.84936
G0 X-1.230766 Y4.846155
G0 X-1.243449 Y4.842916
G0 X-1.256124 Y4.839644
G0 X-1.26879 Y4.836339
G0 X-1.281447 Y4.833001
G0 X-1.294095 Y4.829629
M84