
G90
G21
M83
M104 S0
M106 S0
M140 S0
G92 X0 Y0 Z4.8
G0 F1500 X19.8 Y4.9 Z0
G92 X0 Y0 Z0

G0 F7200 X0 Y0 Z0
G0 Z33.25
G0 X20 Y20 Z28.25
G4 S10
G0 Z53.25
G4 S60
G0 X31.55 Y12.69 Z29.25
G0 F1500 Z25.75
G0 F3600 Y2.39
G0 F3000 X17.05
G0 F3600 Y12.69
G0 F3000 Z29.25
G0 F7200 X46.05
G0 F1500 Z25.75
G0 F3600 Y2.39
G0 F3000 X31.55
G0 F3600 Y12.69
G0 F3000 Z29.25
G0 F7200 X60.55
G0 F1500 Z25.75
G0 F3600 Y2.39
G0 F3000 X46.05
G0 F3600 Y12.69
G0 F3000 Z29.25
G0 F7200 X75.05
G0 F1500 Z25.75
G0 F3600 Y2.39
G0 F3000 X60.55
G0 F3600 Y12.69
G0 F3000 Z29.25
G0 F7200 X86.31 Y31.55
G0 F1500 Z25.75
G0 F3600 X96.61
G0 F3000 Y17.05
G0 F3600 X86.31
G0 F3000 Z29.25
G0 F7200 Y46.05
G0 F1500 Z25.75
G0 F3600 X96.61
G0 F3000 Y31.55
G0 F3600 X86.31
G0 F3000 Z29.25
G0 F7200 Y60.55
G0 F1500 Z25.75
G0 F3600 X96.61
G0 F3000 Y46.05
G0 F3600 X86.31
G0 F3000 Z29.25
G0 F7200 Y75.05
G0 F1500 Z25.75
G0 F3600 X96.61
G0 F3000 Y60.55
G0 F3600 X86.31
G0 F3000 Z29.25
G0 F7200 X67.45 Y86.31
G0 F1500 Z25.75
G0 F3600 Y96.61
G0 F3000 X81.95
G0 F3600 Y86.31
G0 F3000 Z29.25
G0 F7200 X52.95
G0 F1500 Z25.75
G0 F3600 Y96.61
G0 F3000 X67.45
G0 F3600 Y86.31
G0 F3000 Z29.25
G0 F7200 X38.45
G0 F1500 Z25.75
G0 F3600 Y96.61
G0 F3000 X52.95
G0 F3600 Y86.31
G0 F3000 Z29.25
G0 F7200 X23.95
G0 F1500 Z25.75
G0 F3600 Y96.61
G0 F3000 X38.45
G0 F3600 Y86.31
G0 F3000 Z29.25
G0 F7200 X12.69 Y67.45
G0 F1500 Z25.75
G0 F3600 X2.39
G0 F3000 Y81.95
G0 F3600 X12.69
G0 F3000 Z29.25
G0 F7200 Y52.95
G0 F1500 Z25.75
G0 F3600 X2.39
G0 F3000 Y67.45
G0 F3600 X12.69
G0 F3000 Z29.25
G0 F7200 Y38.45
G0 F1500 Z25.75
G0 F3600 X2.39
G0 F3000 Y52.95
G0 F3600 X12.69
G0 F3000 Z29.25
G0 F7200 Y23.95
G0 F1500 Z25.75
G0 F3600 X2.39
G0 F3000 Y38.45
G0 F3600 X12.69
G0 F3000 Z29.25
G0 F7200 X20 Y20 Z28.25
G4 S10
M84